{
  "type": "FeatureCollection",
  "features": [
    {
      "type": "Feature",
      "properties": {},
      "geometry": {
        "type": "Polygon",
        "coordinates": [
          [
            [56.0, 45.5], [58.0, 45.0], [59.5, 43.5], [60.5, 41.2], [62.0, 40.0], 
            [63.5, 39.0], [66.0, 38.0], [67.5, 37.2], [68.2, 38.5], [69.0, 40.0], 
            [71.0, 40.5], [72.0, 40.2], [73.0, 40.8], [71.5, 41.5], [70.0, 41.7], 
            [69.5, 42.5], [67.0, 43.5], [65.0, 44.5], [58.0, 45.5], [56.0, 45.5]
          ]
        ]
      }
    }
  ]
}
